ATLAS CENTAUR 2         
1 00694U 63047A   26025.49181955  .00002091  00000+0  24649-3 0  9995
2 00694  30.3531  77.0287 0548174  59.6392 305.7255 14.11942457125519
THOR AGENA D R/B        
1 00733U 64002A   26025.47167460  .00000382  00000+0  15336-3 0  9998
2 00733  99.1227  36.4576 0033340  25.9134 334.3710 14.33990259232107
SL-3 R/B                
1 00877U 64053B   26025.50927625  .00000599  00000+0  14031-3 0  9995
2 00877  65.0770  97.8291 0077374 305.9752  53.4189 14.61320199260480
SL-8 R/B                
1 02802U 67045B   26025.53065276  .00000443  00000+0  13014-3 0  9995
2 02802  74.0101  68.6909 0062838  86.2729 274.5611 14.45582593 82783
SL-8 R/B                
1 03230U 68040B   26025.44678893  .00005705  00000+0  42486-3 0  9993
2 03230  74.0310  42.0278 0026010 237.4013 122.4664 15.02897870 83516
OAO 2                   
1 03597U 68110A   26025.73441366  .00000531  00000+0  14829-3 0  9994
2 03597  34.9926 145.0460 0005825 218.9876 141.0395 14.47277666 12871
ISIS 1                  
1 03669U 69009A   26025.78926016  .00000639  00000+0  44843-3 0  9995
2 03669  88.4539 159.9834 1707864 175.7264 186.0772 11.30389116343685
SERT 2                  
1 04327U 70009A   26025.64389382  .00000079  00000+0  16406-3 0  9995
2 04327  99.2706 331.1059 0004032 278.3835 254.5300 13.58724952774045
SL-3 R/B                
1 05118U 71028B   26025.79120659  .00047691  00000+0  63521-3 0  9993
2 05118  81.2364 104.8800 0017949  83.8995 276.4300 15.57740199981989
ASTEX 1                 
1 05560U 71089A   26025.78194396  .00001084  00000+0  27592-3 0  9993
2 05560  92.7157 137.8749 0014026 223.5907 136.4192 14.50712267856087
SL-8 R/B                
1 05730U 71119B   26025.56860405  .00008514  00000+0  44286-3 0  9997
2 05730  73.8861 256.2505 0555384 231.6922 123.3055 14.36674256649293
OAO 3 (COPERNICUS)      
1 06153U 72065A   26025.80445264  .00000714  00000+0  15096-3 0  9998
2 06153  35.0041 181.6412 0006444 175.9252 328.7412 14.59955215839926
